H1 CPF 01  gfz 2022 04 25 12  6152 tandemx   
H2 1003001  6202 36605    2022 04 25 12 59 42 2022 04 30 00 00 42   120 1 1  0 0 0
H9
10 0 59695  10062.000000  0      82405.933  -1243741.396  -6781893.660
10 0 59695  10182.000000  0    -543800.622  -1892452.887  -6608273.958
10 0 59695  10302.000000  0   -1171557.150  -2497415.059  -6319382.931
10 0 59695  10422.000000  0   -1789122.412  -3048199.659  -5920193.203
10 0 59695  10542.000000  0   -2384739.648  -3535499.887  -5417588.825
10 0 59695  10662.000000  0   -2946857.142  -3951289.603  -4820258.948
10 0 59695  10782.000000  0   -3464352.448  -4288960.898  -4138559.223
10 0 59695  10902.000000  0   -3926753.727  -4543435.203  -3384341.979
10 0 59695  11022.000000  0   -4324454.543  -4711246.525  -2570758.385
10 0 59695  11142.000000  0   -4648917.522  -4790594.041  -1712033.639
10 0 59695  11262.000000  0   -4892861.310  -4781362.192   -823219.104
10 0 59695  11382.000000  0   -5050425.848  -4685107.305     80074.261
10 0 59695  11502.000000  0   -5117311.637  -4505010.793    981956.302
10 0 59695  11622.000000  0   -5090888.319  -4245798.462   1866546.448
10 0 59695  11742.000000  0   -4970268.971  -3913627.653   2718262.893
10 0 59695  11862.000000  0   -4756348.949  -3515945.905   3522105.283
10 0 59695  11982.000000  0   -4451808.658  -3061325.249   4263925.426
10 0 59695  12102.000000  0   -4061079.320  -2559275.395   4930680.720
10 0 59695  12222.000000  0   -3590273.688  -2020041.770   5510662.891
10 0 59695  12342.000000  0   -3047085.507  -1454394.553   5993700.864
10 0 59695  12462.000000  0   -2440658.323   -873411.552   6371336.339
10 0 59695  12582.000000  0   -1781425.400   -288258.411   6636966.958
10 0 59695  12702.000000  0   -1080925.172    290026.722   6785954.168
10 0 59695  12822.000000  0    -351598.026    850739.572   6815698.431
10 0 59695  12942.000000  0     393434.453   1383707.156   6725682.021
10 0 59695  13062.000000  0    1140604.992   1879472.284   6517477.740
10 0 59695  13182.000000  0    1876147.164   2329461.566   6194722.433
10 0 59695  13302.000000  0    2586348.156   2726133.837   5763057.477
10 0 59695  13422.000000  0    3257805.525   3063108.624   5230036.920
10 0 59695  13542.000000  0    3877683.681   3335271.940   4605000.796
10 0 59695  13662.000000  0    4433961.920   3538856.237   3898916.032
10 0 59695  13782.000000  0    4915674.446   3671494.511   3124190.326
10 0 59695  13902.000000  0    5313134.755   3732246.420   2294452.746
10 0 59695  14022.000000  0    5618135.633   3721593.360   1424311.798
10 0 59695  14142.000000  0    5824123.290   3641405.438    529093.017
10 0 59695  14262.000000  0    5926339.497   3494879.013   -375439.199
10 0 59695  14382.000000  0    5921927.573   3286446.598  -1273368.001
10 0 59695  14502.000000  0    5810000.219   3021661.718  -2148912.698
10 0 59695  14622.000000  0    5591666.898   2707062.399  -2986712.733
10 0 59695  14742.000000  0    5270021.975   2350016.763  -3772101.547
10 0 59695  14862.000000  0    4850094.429   1958554.218  -4491365.258
10 0 59695  14982.000000  0    4338757.992   1541186.416  -5131980.454
10 0 59695  15102.000000  0    3744607.920   1106723.806  -5682824.586
10 0 59695  15222.000000  0    3077807.954    664092.236  -6134360.051
10 0 59695  15342.000000  0    2349909.186    222152.417  -6478788.505
10 0 59695  15462.000000  0    1573646.636   -210473.353  -6710173.434
10 0 59695  15582.000000  0     762717.620   -625565.103  -6824533.051
10 0 59695  15702.000000  0     -68458.030  -1015457.465  -6819901.654
10 0 59695  15822.000000  0    -904988.691  -1373176.843  -6696358.029
10 0 59695  15942.000000  0   -1731770.810  -1692562.701  -6456025.033
10 0 59695  16062.000000  0   -2533755.769  -1968371.954  -6103037.107
10 0 59695  16182.000000  0   -3296217.584  -2196363.862  -5643476.091
10 0 59695  16302.000000  0   -4005020.143  -2373365.943  -5085278.407
10 0 59695  16422.000000  0   -4646881.304  -2497319.077  -4438109.803
10 0 59695  16542.000000  0   -5209625.960  -2567300.092  -3713208.646
10 0 59695  16662.000000  0   -5682424.434  -2583521.684  -2923200.122
10 0 59695  16782.000000  0   -6056010.628  -2547308.639  -2081882.154
10 0 59695  16902.000000  0   -6322873.775  -2461050.925  -1203986.843
10 0 59695  17022.000000  0   -6477419.293  -2328134.188   -304921.021
10 0 59695  17142.000000  0   -6516093.343  -2152848.873    599508.999
10 0 59695  17262.000000  0   -6437468.141  -1940279.895   1493382.961
10 0 59695  17382.000000  0   -6242283.959  -1696179.688   2360956.636
10 0 59695  17502.000000  0   -5933446.157  -1426828.139   3186947.963
10 0 59695  17622.000000  0   -5515979.950  -1138882.604   3956813.801
10 0 59695  17742.000000  0   -4996940.762   -839221.811   4657012.429
10 0 59695  17862.000000  0   -4385284.741   -534788.348   5275241.974
10 0 59695  17982.000000  0   -3691706.178   -232433.741   5800655.019
10 0 59695  18102.000000  0   -2928441.686     61231.499   6224046.410
10 0 59695  18222.000000  0   -2109046.074    339978.757   6538009.075
10 0 59695  18342.000000  0   -1248145.941    598089.266   6737057.492
10 0 59695  18462.000000  0    -361175.491    830468.923   6817717.618
10 0 59695  18582.000000  0     535900.484   1032747.204   6778583.017
10 0 59695  18702.000000  0    1426872.927   1201358.782   6620337.790
10 0 59695  18822.000000  0    2295580.499   1333606.785   6345745.347
10 0 59695  18942.000000  0    3126202.082   1427705.947   5959603.461
10 0 59695  19062.000000  0    3903547.031   1482805.507   5468665.833
10 0 59695  19182.000000  0    4613335.891   1498991.293   4881528.940
10 0 59695  19302.000000  0    5242467.895   1477267.840   4208489.135
10 0 59695  19422.000000  0    5779273.236   1419519.992   3461367.004
10 0 59695  19542.000000  0    6213738.732   1328455.000   2653299.638
10 0 59695  19662.000000  0    6537703.541   1207524.784   1798509.511
10 0 59695  19782.000000  0    6745021.707   1060832.306    912050.019
10 0 59695  19902.000000  0    6831684.619    893022.965      9533.664
10 0 59695  20022.000000  0    6795902.202    709163.955   -893151.314
10 0 59695  20142.000000  0    6638137.651    514614.576  -1780130.461
10 0 59695  20262.000000  0    6361096.591    314890.626  -2635829.617
10 0 59695  20382.000000  0    5969672.554    115526.989  -3445254.061
10 0 59695  20502.000000  0    5470849.627    -78058.091  -4194254.481
10 0 59695  20622.000000  0    4873564.263   -260693.698  -4869773.875
10 0 59695  20742.000000  0    4188531.936   -427578.383  -5460069.203
10 0 59695  20862.000000  0    3428045.134   -574391.607  -5954907.254
10 0 59695  20982.000000  0    2605744.974   -697392.925  -6345732.731
10 0 59695  21102.000000  0    1736371.311   -793505.540  -6625804.265
10 0 59695  21222.000000  0     835498.922   -860384.076  -6790299.300
10 0 59695  21342.000000  0     -80738.524   -896465.533  -6836389.148
10 0 59695  21462.000000  0    -995931.891   -901001.620  -6763281.381
10 0 59695  21582.000000  0   -1893683.143   -874073.465  -6572232.417
10 0 59695  21702.000000  0   -2757892.948   -816587.494  -6266527.701
10 0 59695  21822.000000  0   -3573042.304   -730253.272  -5851430.381
10 0 59695  21942.000000  0   -4324467.961   -617543.480  -5334101.921
10 0 59695  22062.000000  0   -4998627.955   -481636.050  -4723489.529
10 0 59695  22182.000000  0   -5583349.858   -326339.980  -4030182.991
10 0 59695  22302.000000  0   -6068059.906   -156005.850  -3266242.069
10 0 59695  22422.000000  0   -6443985.831     24578.330  -2444993.778
10 0 59695  22542.000000  0   -6704328.871    210302.670  -1580804.540
10 0 59695  22662.000000  0   -6844400.665    395861.215   -688828.914
10 0 59695  22782.000000  0   -6861718.891    575883.315    215261.798
10 0 59695  22902.000000  0   -6756057.464    745068.404   1115561.321
10 0 59695  23022.000000  0   -6529453.935    898320.280   1996215.750
10 0 59695  23142.000000  0   -6186171.160   1030877.418   2841712.268
10 0 59695  23262.000000  0   -5732613.022   1138435.955   3637161.373
10 0 59695  23382.000000  0   -5177196.856   1217261.956   4368565.376
10 0 59695  23502.000000  0   -4530187.526   1264290.441   5023067.467
10 0 59695  23622.000000  0   -3803497.825   1277208.430   5589177.195
10 0 59695  23742.000000  0   -3010460.608   1254520.817   6056969.613
10 0 59695  23862.000000  0   -2165576.540   1195597.384   6418255.839
10 0 59695  23982.000000  0   -1284241.749   1100700.750   6666720.955
10 0 59695  24102.000000  0    -382463.279    970993.693   6798026.936
10 0 59695  24222.000000  0     523431.877    808526.538   6809882.904
10 0 59695  24342.000000  0    1417091.321    616204.601   6702082.350
10 0 59695  24462.000000  0    2282431.133    397736.648   6476506.597
10 0 59695  24582.000000  0    3103924.593    157564.616   6137094.897
10 0 59695  24702.000000  0    3866882.652    -99224.601   5689780.551
10 0 59695  24822.000000  0    4557719.877   -367003.783   5142392.456
10 0 59695  24942.000000  0    5164201.927   -639724.275   4504524.197
10 0 59695  25062.000000  0    5675670.057   -911047.431   3787371.019
10 0 59695  25182.000000  0    6083238.371  -1174485.973   3003536.937
10 0 59695  25302.000000  0    6379958.159  -1423551.904   2166812.987
10 0 59695  25422.000000  0    6560945.163  -1651906.842   1291931.654
10 0 59695  25542.000000  0    6623466.379  -1853512.197    394302.446
10 0 59695  25662.000000  0    6566984.615  -2022776.095   -510267.602
10 0 59695  25782.000000  0    6393157.120  -2154690.561  -1405861.796
10 0 59695  25902.000000  0    6105790.604  -2244957.535  -2276742.539
10 0 59695  26022.000000  0    5710752.405  -2290099.544  -3107635.119
10 0 59695  26142.000000  0    5215841.781  -2287552.406  -3883999.189
10 0 59695  26262.000000  0    4630626.271  -2235738.427  -4592283.457
10 0 59695  26382.000000  0    3966246.404  -2134118.698  -5220159.773
10 0 59695  26502.000000  0    3235192.989  -1983223.353  -5756730.931
99
